{
    "links": {
        "self": "http://www.neowsapp.com/rest/v1/neo/3760497?api_key=iIulBulltgU6a56xZRHN4H3l9WmuAYTsLGpBGhQ2"
    },
    "id": "3760497",
    "neo_reference_id": "3760497",
    "name": "(2016 TD11)",
    "designation": "2016 TD11",
    "nasa_jpl_url": "http://ssd.jpl.nasa.gov/sbdb.cgi?sstr=3760497",
    "absolute_magnitude_h": 26.3,
    "estimated_diameter": {
        "kilometers": {
            "estimated_diameter_min": 0.0146067964,
            "estimated_diameter_max": 0.0326617897
        },
        "meters": {
            "estimated_diameter_min": 14.6067964271,
            "estimated_diameter_max": 32.6617897446
        },
        "miles": {
            "estimated_diameter_min": 0.0090762397,
            "estimated_diameter_max": 0.020295089
        },
        "feet": {
            "estimated_diameter_min": 47.92256199,
            "estimated_diameter_max": 107.1581062656
        }
    },
    "is_potentially_hazardous_asteroid": false,
    "close_approach_data": [
        {
            "close_approach_date": "2016-10-11",
            "close_approach_date_full": "2016-Oct-11 16:18",
            "epoch_date_close_approach": 1476202680000,
            "relative_velocity": {
                "kilometers_per_second": "7.2806223797",
                "kilometers_per_hour": "26210.2405667519",
                "miles_per_hour": "16286.0242010465"
            },
            "miss_distance": {
                "astronomical": "0.0145806084",
                "lunar": "5.6718566676",
                "kilometers": "2181227.959944108",
                "miles": "1355352.2057923704"
            },
            "orbiting_body": "Earth"
        },
        {
            "close_approach_date": "2019-08-15",
            "close_approach_date_full": "2019-Aug-15 22:48",
            "epoch_date_close_approach": 1565909280000,
            "relative_velocity": {
                "kilometers_per_second": "11.4552344473",
                "kilometers_per_hour": "41238.8440101562",
                "miles_per_hour": "25624.2139350884"
            },
            "miss_distance": {
                "astronomical": "0.0691731995",
                "lunar": "26.9083746055",
                "kilometers": "10348163.306285065",
                "miles": "6430050.513121297"
            },
            "orbiting_body": "Mars"
        }
    ],
    "orbital_data": {
        "orbit_id": "8",
        "orbit_determination_date": "2018-02-10 07:08:19",
        "first_observation_date": "2016-10-06",
        "last_observation_date": "2016-10-13",
        "data_arc_in_days": 7,
        "observations_used": 64,
        "orbit_uncertainty": "7",
        "minimum_orbit_intersection": ".0149434",
        "jupiter_tisserand_invariant": "3.931",
        "epoch_osculation": "2459000.5",
        "eccentricity": ".4548321166099414",
        "semi_major_axis": "1.80306120354886",
        "inclination": "4.632344718054283",
        "ascending_node_longitude": "10.97822581657719",
        "orbital_period": "884.3295352469638",
        "perihelion_distance": ".9829710599614634",
        "perihelion_argument": "30.62595219094916",
        "aphelion_distance": "2.623151347136256",
        "perihelion_time": "2458577.279395555553",
        "mean_anomaly": "172.2880572539649",
        "mean_motion": ".4070880657621189",
        "equinox": "J2000",
        "orbit_class": {
            "orbit_class_type": "APO",
            "orbit_class_description": "Near-Earth asteroid orbits which cross the Earth’s orbit similar to that of 1862 Apollo",
            "orbit_class_range": "a (semi-major axis) > 1.0 AU; q (perihelion) < 1.017 AU"
        }
    },
    "is_sentry_object": false
}